start=new Date('2021-10-26T00:00:00.000Z').valueOf();
sats=[{"EPOCH":"2021-10-25T04:31:45.525504","CENTER_NAME":"EARTH","RA_OF_ASC_NODE":"248.5814","OBJECT_ID":"2021-021AJ","MEAN_ANOMALY":"286.9059","OBJECT_TYPE":"PAYLOAD","NORAD_CAT_ID":"47892","INCLINATION":"53.0557","TLE_LINE1":"1 47892U 21021AJ  21298.18872136  .00000392  00000-0  45228-4 0  9993","CLASSIFICATION_TYPE":"U","LAUNCH_DATE":"2021-03-14","MEAN_MOTION_DDOT":"0.0000000000000","TIME_SYSTEM":"UTC","REF_FRAME":"TEME","PERIAPSIS":"546.040","ECCENTRICITY":"0.00016870","MEAN_MOTION":"15.06401789","PERIOD":"95.592","GP_ID":"188143855","BSTAR":"0.00004522800000","REV_AT_EPOCH":"3542","FILE":"3183453","OBJECT_NAME":"STARLINK-2352","SEMIMAJOR_AXIS":"6925.343","TLE_LINE2":"2 47892  53.0557 248.5814 0001687  73.2115 286.9059 15.06401789 35424","COUNTRY_CODE":"US","DECAY_DATE":null,"SITE":"AFETR","EPHEMERIS_TYPE":"0","APOAPSIS":"548.376","ARG_OF_PERICENTER":"73.2115","RCS_SIZE":"LARGE","MEAN_MOTION_DOT":"0.00000392","MEAN_ELEMENT_THEORY":"SGP4","ELEMENT_SET_NO":"999"},{"FILE":"3183493","COUNTRY_CODE":"US","TLE_LINE2":"2 47894  53.0562 237.0760 0001739  72.0808 288.0371 15.06392580 35135","SEMIMAJOR_AXIS":"6925.371","OBJECT_NAME":"STARLINK-2354","SITE":"AFETR","DECAY_DATE":null,"APOAPSIS":"548.441","EPHEMERIS_TYPE":"0","MEAN_MOTION_DOT":"-0.00001625","RCS_SIZE":"LARGE","MEAN_ELEMENT_THEORY":"SGP4","ARG_OF_PERICENTER":"72.0808","ELEMENT_SET_NO":"999","EPOCH":"2021-10-25T12:36:05.359392","CENTER_NAME":"EARTH","RA_OF_ASC_NODE":"237.0760","OBJECT_ID":"2021-021AL","TLE_LINE1":"1 47894U 21021AL  21298.52506203 -.00001625  00000-0 -90219-4 0  9994","INCLINATION":"53.0562","OBJECT_TYPE":"PAYLOAD","NORAD_CAT_ID":"47894","MEAN_ANOMALY":"288.0371","PERIAPSIS":"546.032","REF_FRAME":"TEME","LAUNCH_DATE":"2021-03-14","MEAN_MOTION_DDOT":"0.0000000000000","TIME_SYSTEM":"UTC","CLASSIFICATION_TYPE":"U","MEAN_MOTION":"15.06392580","PERIOD":"95.593","ECCENTRICITY":"0.00017390","REV_AT_EPOCH":"3513","BSTAR":"-0.00009021900000","GP_ID":"188146137"},{"APOAPSIS":"548.304","EPHEMERIS_TYPE":"0","DECAY_DATE":null,"SITE":"AFETR","OBJECT_NAME":"STARLINK-2355","SEMIMAJOR_AXIS":"6925.368","TLE_LINE2":"2 47895  53.0562 238.5137 0001547  81.3138 278.8026 15.06393613 35543","COUNTRY_CODE":"US","FILE":"3183453","ELEMENT_SET_NO":"999","ARG_OF_PERICENTER":"81.3138","RCS_SIZE":"LARGE","MEAN_MOTION_DOT":"-0.00001403","MEAN_ELEMENT_THEORY":"SGP4","RA_OF_ASC_NODE":"238.5137","OBJECT_ID":"2021-021AM","CENTER_NAME":"EARTH","EPOCH":"2021-10-25T04:54:18.957312","GP_ID":"188144857","BSTAR":"-0.00007533600000","REV_AT_EPOCH":"3554","ECCENTRICITY":"0.00015470","MEAN_MOTION":"15.06393613","PERIOD":"95.593","CLASSIFICATION_TYPE":"U","TIME_SYSTEM":"UTC","LAUNCH_DATE":"2021-03-14","MEAN_MOTION_DDOT":"0.0000000000000","REF_FRAME":"TEME","PERIAPSIS":"546.162","MEAN_ANOMALY":"278.8026","OBJECT_TYPE":"PAYLOAD","NORAD_CAT_ID":"47895","INCLINATION":"53.0562","TLE_LINE1":"1 47895U 21021AM  21298.20438608 -.00001403  00000-0 -75336-4 0  9990"},{"DECAY_DATE":null,"SITE":"AFETR","EPHEMERIS_TYPE":"0","APOAPSIS":"548.337","FILE":"3183453","OBJECT_NAME":"STARLINK-2356","SEMIMAJOR_AXIS":"6925.334","TLE_LINE2":"2 47896  53.0537 253.1995 0001644  69.0449 291.0716 15.06404768 35319","COUNTRY_CODE":"US","ARG_OF_PERICENTER":"69.0449","RCS_SIZE":"LARGE","MEAN_MOTION_DOT":"0.00000674","MEAN_ELEMENT_THEORY":"SGP4","ELEMENT_SET_NO":"999","CENTER_NAME":"EARTH","RA_OF_ASC_NODE":"253.1995","OBJECT_ID":"2021-021AN","EPOCH":"2021-10-25T06:19:53.717088","ECCENTRICITY":"0.00016440","MEAN_MOTION":"15.06404768","PERIOD":"95.592","GP_ID":"188144608","BSTAR":"0.00006413400000","REV_AT_EPOCH":"3531","OBJECT_TYPE":"PAYLOAD","NORAD_CAT_ID":"47896","MEAN_ANOMALY":"291.0716","INCLINATION":"53.0537","TLE_LINE1":"1 47896U 21021AN  21298.26381617  .00000674  00000-0  64134-4 0  9995","CLASSIFICATION_TYPE":"U","MEAN_MOTION_DDOT":"0.0000000000000","LAUNCH_DATE":"2021-03-14","TIME_SYSTEM":"UTC","REF_FRAME":"TEME","PERIAPSIS":"546.060"},{"PERIAPSIS":"546.080","REF_FRAME":"TEME","LAUNCH_DATE":"2021-03-14","MEAN_MOTION_DDOT":"0.0000000000000","TIME_SYSTEM":"UTC","CLASSIFICATION_TYPE":"U","TLE_LINE1":"1 47897U 21021AP  21298.33613621 -.00000303  00000-0 -14629-5 0  9993","INCLINATION":"53.0561","OBJECT_TYPE":"PAYLOAD","MEAN_ANOMALY":"289.2620","NORAD_CAT_ID":"47897","REV_AT_EPOCH":"3510","BSTAR":"-0.00000146290000","GP_ID":"188115433","MEAN_MOTION":"15.06397324","PERIOD":"95.592","ECCENTRICITY":"0.00016490","EPOCH":"2021-10-25T08:04:02.168544","OBJECT_ID":"2021-021AP","RA_OF_ASC_NODE":"237.9524","CENTER_NAME":"EARTH","ELEMENT_SET_NO":"999","MEAN_MOTION_DOT":"-0.00000303","RCS_SIZE":"MEDIUM","MEAN_ELEMENT_THEORY":"SGP4","ARG_OF_PERICENTER":"70.8547","COUNTRY_CODE":"US","TLE_LINE2":"2 47897  53.0561 237.9524 0001649  70.8547 289.2620 15.06397324 35108","SEMIMAJOR_AXIS":"6925.357","OBJECT_NAME":"STARLINK-2357","FILE":"3183144","APOAPSIS":"548.364","EPHEMERIS_TYPE":"0","SITE":"AFETR","DECAY_DATE":null},{"FILE":"3183453","OBJECT_NAME":"STARLINK-2358","SEMIMAJOR_AXIS":"6925.334","TLE_LINE2":"2 47898  53.0569 238.5503 0001555  70.5206 289.5951 15.06404791 35518","COUNTRY_CODE":"US","DECAY_DATE":null,"SITE":"AFETR","EPHEMERIS_TYPE":"0","APOAPSIS":"548.276","ARG_OF_PERICENTER":"70.5206","MEAN_MOTION_DOT":"0.00000308","RCS_SIZE":"LARGE","MEAN_ELEMENT_THEORY":"SGP4","ELEMENT_SET_NO":"999","EPOCH":"2021-10-25T04:43:41.529216","CENTER_NAME":"EARTH","RA_OF_ASC_NODE":"238.5503","OBJECT_ID":"2021-021AQ","OBJECT_TYPE":"PAYLOAD","MEAN_ANOMALY":"289.5951","NORAD_CAT_ID":"47898","INCLINATION":"53.0569","TLE_LINE1":"1 47898U 21021AQ  21298.19700844  .00000308  00000-0  39604-4 0  9994","CLASSIFICATION_TYPE":"U","LAUNCH_DATE":"2021-03-14","TIME_SYSTEM":"UTC","MEAN_MOTION_DDOT":"0.0000000000000","REF_FRAME":"TEME","PERIAPSIS":"546.122","ECCENTRICITY":"0.00015550","PERIOD":"95.592","MEAN_MOTION":"15.06404791","GP_ID":"188143606","BSTAR":"0.00003960400000","REV_AT_EPOCH":"3551"},{"EPOCH":"2021-10-25T04:39:43.331328","OBJECT_ID":"2021-021AR","RA_OF_ASC_NODE":"228.5606","CENTER_NAME":"EARTH","PERIAPSIS":"546.133","REF_FRAME":"TEME","LAUNCH_DATE":"2021-03-14","MEAN_MOTION_DDOT":"0.0000000000000","TIME_SYSTEM":"UTC","CLASSIFICATION_TYPE":"U","TLE_LINE1":"1 47899U 21021AR  21298.19425152  .00000306  00000-0  39416-4 0  9990","INCLINATION":"53.0560","NORAD_CAT_ID":"47899","OBJECT_TYPE":"PAYLOAD","MEAN_ANOMALY":"286.2786","REV_AT_EPOCH":"3571","BSTAR":"0.00003941600000","GP_ID":"188144358","PERIOD":"95.592","MEAN_MOTION":"15.06402778","ECCENTRICITY":"0.00015480","COUNTRY_CODE":"US","TLE_LINE2":"2 47899  53.0560 228.5606 0001548  73.8374 286.2786 15.06402778 35712","SEMIMAJOR_AXIS":"6925.340","OBJECT_NAME":"STARLINK-2359","FILE":"3183453","APOAPSIS":"548.277","EPHEMERIS_TYPE":"0","SITE":"AFETR","DECAY_DATE":null,"ELEMENT_SET_NO":"999","MEAN_MOTION_DOT":"0.00000306","RCS_SIZE":"LARGE","MEAN_ELEMENT_THEORY":"SGP4","ARG_OF_PERICENTER":"73.8374"},{"ELEMENT_SET_NO":"999","RCS_SIZE":"LARGE","MEAN_MOTION_DOT":"0.00005364","MEAN_ELEMENT_THEORY":"SGP4","ARG_OF_PERICENTER":"80.0318","TLE_LINE2":"2 47900  53.0566 236.9668 0001650  80.0318 280.0857 15.06380041 35139","COUNTRY_CODE":"US","OBJECT_NAME":"STARLINK-2360","SEMIMAJOR_AXIS":"6925.410","FILE":"3183696","APOAPSIS":"548.417","EPHEMERIS_TYPE":"0","SITE":"AFETR","DECAY_DATE":null,"REF_FRAME":"TEME","PERIAPSIS":"546.132","CLASSIFICATION_TYPE":"U","MEAN_MOTION_DDOT":"0.0000000000000","LAUNCH_DATE":"2021-03-14","TIME_SYSTEM":"UTC","INCLINATION":"53.0566","TLE_LINE1":"1 47900U 21021AS  21298.54993035  .00005364  00000-0  37891-3 0  9995","OBJECT_TYPE":"PAYLOAD","MEAN_ANOMALY":"280.0857","NORAD_CAT_ID":"47900","REV_AT_EPOCH":"3513","GP_ID":"188151381","BSTAR":"0.00037891000000","PERIOD":"95.593","MEAN_MOTION":"15.06380041","ECCENTRICITY":"0.00016500","EPOCH":"2021-10-25T13:11:53.982240","RA_OF_ASC_NODE":"236.9668","OBJECT_ID":"2021-021AS","CENTER_NAME":"EARTH"},{"RA_OF_ASC_NODE":"228.6483","OBJECT_ID":"2021-021AT","CENTER_NAME":"EARTH","EPOCH":"2021-10-25T04:11:49.364160","BSTAR":"0.00001371600000","GP_ID":"188143856","REV_AT_EPOCH":"3569","ECCENTRICITY":"0.00015810","MEAN_MOTION":"15.06393995","PERIOD":"95.593","LAUNCH_DATE":"2021-03-14","TIME_SYSTEM":"UTC","MEAN_MOTION_DDOT":"0.0000000000000","CLASSIFICATION_TYPE":"U","PERIAPSIS":"546.137","REF_FRAME":"TEME","OBJECT_TYPE":"PAYLOAD","MEAN_ANOMALY":"288.4186","NORAD_CAT_ID":"47901","TLE_LINE1":"1 47901U 21021AT  21298.17487690 -.00000077  00000-0  13716-4 0  9998","INCLINATION":"53.0528","APOAPSIS":"548.327","EPHEMERIS_TYPE":"0","DECAY_DATE":null,"SITE":"AFETR","SEMIMAJOR_AXIS":"6925.367","OBJECT_NAME":"STARLINK-2361","COUNTRY_CODE":"US","TLE_LINE2":"2 47901  53.0528 228.6483 0001581  71.6974 288.4186 15.06393995 35698","FILE":"3183453","ELEMENT_SET_NO":"999","ARG_OF_PERICENTER":"71.6974","RCS_SIZE":"LARGE","MEAN_MOTION_DOT":"-0.00000077","MEAN_ELEMENT_THEORY":"SGP4"},{"ELEMENT_SET_NO":"999","ARG_OF_PERICENTER":"68.4807","MEAN_MOTION_DOT":"0.00000422","RCS_SIZE":"LARGE","MEAN_ELEMENT_THEORY":"SGP4","SEMIMAJOR_AXIS":"6925.343","OBJECT_NAME":"STARLINK-2362","COUNTRY_CODE":"US","TLE_LINE2":"2 47902  53.0546 247.7804 0001781  68.4807 291.6372 15.06401856 34967","FILE":"3183494","EPHEMERIS_TYPE":"0","APOAPSIS":"548.441","DECAY_DATE":null,"SITE":"AFETR","MEAN_MOTION_DDOT":"0.0000000000000","LAUNCH_DATE":"2021-03-14","TIME_SYSTEM":"UTC","CLASSIFICATION_TYPE":"U","PERIAPSIS":"545.974","REF_FRAME":"TEME","NORAD_CAT_ID":"47902","OBJECT_TYPE":"PAYLOAD","MEAN_ANOMALY":"291.6372","TLE_LINE1":"1 47902U 21021AU  21298.36564114  .00000422  00000-0  47234-4 0  9992","INCLINATION":"53.0546","BSTAR":"0.00004723400000","GP_ID":"188146158","REV_AT_EPOCH":"3496","ECCENTRICITY":"0.00017810","MEAN_MOTION":"15.06401856","PERIOD":"95.592","EPOCH":"2021-10-25T08:46:31.394496","RA_OF_ASC_NODE":"247.7804","OBJECT_ID":"2021-021AU","CENTER_NAME":"EARTH"}];
